{"type":"FeatureCollection","features":[{"type":"Feature","geometry":{"type":"Point","coordinates":[65.0,33.0]},"properties":{"actor":"USA","actor_slug":"usa","country":"Afghanistan","iso3":"AFG","region":"Asia","layer_status":"Source-complete","last_updated":"2026-05-20","notes":"Automated screening pass: row uses a primary source URL by actor/subfactor; verify with country-specific evidence before final analytical use.","publication_status":"Source-complete","data_status":"Needs review","demo_warning":"Workbook score is source-complete screening data and should be verified before final analytical use.","composite_score":7.0,"source_composite_score_0_10":7.0,"map_color":"#FB923C","map_opacity":0.8,"confidence":"High"}},{"type":"Feature","geometry":{"type":"Point","coordinates":[3.0,28.0]},"properties":{"actor":"USA","actor_slug":"usa","country":"Algeria","iso3":"DZA","region":"Africa","layer_status":"Source-complete","last_updated":"2026-05-20","notes":"Automated screening pass: row uses a primary source URL by actor/subfactor; verify with country-specific evidence before final analytical use.","publication_status":"Source-complete","data_status":"Needs review","demo_warning":"Workbook score is source-complete screening data and should be verified before final analytical use.","composite_score":2.75,"source_composite_score_0_10":2.75,"map_color":"#A7F3D0","map_opacity":0.5,"confidence":"Medium"}},{"type":"Feature","geometry":{"type":"Point","coordinates":[-64.0,-34.0]},"properties":{"actor":"USA","actor_slug":"usa","country":"Argentina","iso3":"ARG","region":"Americas","layer_status":"Source-complete","last_updated":"2026-05-20","notes":"Automated screening pass: row uses a primary source URL by actor/subfactor; verify with country-specific evidence before final analytical use.","publication_status":"Source-complete","data_status":"Needs review","demo_warning":"Workbook score is source-complete screening data and should be verified before final analytical use.","composite_score":2.75,"source_composite_score_0_10":2.75,"map_color":"#A7F3D0","map_opacity":0.5,"confidence":"Medium"}},{"type":"Feature","geometry":{"type":"Point","coordinates":[45.0,40.0]},"properties":{"actor":"USA","actor_slug":"usa","country":"Armenia","iso3":"ARM","region":"Asia","layer_status":"Source-complete","last_updated":"2026-05-20","notes":"Automated screening pass: row uses a primary source URL by actor/subfactor; verify with country-specific evidence before final analytical use.","publication_status":"Source-complete","data_status":"Needs review","demo_warning":"Workbook score is source-complete screening data and should be verified before final analytical use.","composite_score":3.0,"source_composite_score_0_10":3.0,"map_color":"#FEF3C7","map_opacity":0.55,"confidence":"Medium"}},{"type":"Feature","geometry":{"type":"Point","coordinates":[133.0,-27.0]},"properties":{"actor":"USA","actor_slug":"usa","country":"Australia","iso3":"AUS","region":"Oceania","layer_status":"Source-complete","last_updated":"2026-05-20","notes":"Automated screening pass: row uses a primary source URL by actor/subfactor; verify with country-specific evidence before final analytical use.","publication_status":"Source-complete","data_status":"Needs review","demo_warning":"Workbook score is source-complete screening data and should be verified before final analytical use.","composite_score":4.25,"source_composite_score_0_10":4.25,"map_color":"#FDE68A","map_opacity":0.6,"confidence":"Medium"}},{"type":"Feature","geometry":{"type":"Point","coordinates":[13.33333333,47.33333333]},"properties":{"actor":"USA","actor_slug":"usa","country":"Austria","iso3":"AUT","region":"Europe","layer_status":"Source-complete","last_updated":"2026-05-20","notes":"Automated screening pass: row uses a primary source URL by actor/subfactor; verify with country-specific evidence before final analytical use.","publication_status":"Source-complete","data_status":"Needs review","demo_warning":"Workbook score is source-complete screening data and should be verified before final analytical use.","composite_score":3.5,"source_composite_score_0_10":3.5,"map_color":"#FEF3C7","map_opacity":0.6,"confidence":"Medium"}},{"type":"Feature","geometry":{"type":"Point","coordinates":[47.5,40.5]},"properties":{"actor":"USA","actor_slug":"usa","country":"Azerbaijan","iso3":"AZE","region":"Asia","layer_status":"Source-complete","last_updated":"2026-05-20","notes":"Automated screening pass: row uses a primary source URL by actor/subfactor; verify with country-specific evidence before final analytical use.","publication_status":"Source-complete","data_status":"Needs review","demo_warning":"Workbook score is source-complete screening data and should be verified before final analytical use.","composite_score":2.0,"source_composite_score_0_10":2.0,"map_color":"#A7F3D0","map_opacity":0.45,"confidence":"Low"}},{"type":"Feature","geometry":{"type":"Point","coordinates":[50.55,26.0]},"properties":{"actor":"USA","actor_slug":"usa","country":"Bahrain","iso3":"BHR","region":"Asia","layer_status":"Source-complete","last_updated":"2026-05-20","notes":"Automated screening pass: row uses a primary source URL by actor/subfactor; verify with country-specific evidence before final analytical use.","publication_status":"Source-complete","data_status":"Needs review","demo_warning":"Workbook score is source-complete screening data and should be verified before final analytical use.","composite_score":4.75,"source_composite_score_0_10":4.75,"map_color":"#FDE68A","map_opacity":0.6,"confidence":"Medium"}},{"type":"Feature","geometry":{"type":"Point","coordinates":[28.0,53.0]},"properties":{"actor":"USA","actor_slug":"usa","country":"Belarus","iso3":"BLR","region":"Europe","layer_status":"Source-complete","last_updated":"2026-05-20","notes":"Automated screening pass: row uses a primary source URL by actor/subfactor; verify with country-specific evidence before final analytical use.","publication_status":"Source-complete","data_status":"Needs review","demo_warning":"Workbook score is source-complete screening data and should be verified before final analytical use.","composite_score":3.25,"source_composite_score_0_10":3.25,"map_color":"#FEF3C7","map_opacity":0.55,"confidence":"Medium"}},{"type":"Feature","geometry":{"type":"Point","coordinates":[2.25,9.5]},"properties":{"actor":"USA","actor_slug":"usa","country":"Benin","iso3":"BEN","region":"Africa","layer_status":"Source-complete","last_updated":"2026-05-20","notes":"Automated screening pass: row uses a primary source URL by actor/subfactor; verify with country-specific evidence before final analytical use.","publication_status":"Source-complete","data_status":"Needs review","demo_warning":"Workbook score is source-complete screening data and should be verified before final analytical use.","composite_score":2.75,"source_composite_score_0_10":2.75,"map_color":"#A7F3D0","map_opacity":0.5,"confidence":"Medium"}},{"type":"Feature","geometry":{"type":"Point","coordinates":[-65.0,-17.0]},"properties":{"actor":"USA","actor_slug":"usa","country":"Bolivia","iso3":"BOL","region":"Americas","layer_status":"Source-complete","last_updated":"2026-05-20","notes":"Automated screening pass: row uses a primary source URL by actor/subfactor; verify with country-specific evidence before final analytical use.","publication_status":"Source-complete","data_status":"Needs review","demo_warning":"Workbook score is source-complete screening data and should be verified before final analytical use.","composite_score":3.0,"source_composite_score_0_10":3.0,"map_color":"#FEF3C7","map_opacity":0.55,"confidence":"Medium"}},{"type":"Feature","geometry":{"type":"Point","coordinates":[-55.0,-10.0]},"properties":{"actor":"USA","actor_slug":"usa","country":"Brazil","iso3":"BRA","region":"Americas","layer_status":"Source-complete","last_updated":"2026-05-20","notes":"Automated screening pass: row uses a primary source URL by actor/subfactor; verify with country-specific evidence before final analytical use.","publication_status":"Source-complete","data_status":"Needs review","demo_warning":"Workbook score is source-complete screening data and should be verified before final analytical use.","composite_score":2.75,"source_composite_score_0_10":2.75,"map_color":"#A7F3D0","map_opacity":0.5,"confidence":"Medium"}},{"type":"Feature","geometry":{"type":"Point","coordinates":[25.0,43.0]},"properties":{"actor":"USA","actor_slug":"usa","country":"Bulgaria","iso3":"BGR","region":"Europe","layer_status":"Source-complete","last_updated":"2026-05-20","notes":"Automated screening pass: row uses a primary source URL by actor/subfactor; verify with country-specific evidence before final analytical use.","publication_status":"Source-complete","data_status":"Needs review","demo_warning":"Workbook score is source-complete screening data and should be verified before final analytical use.","composite_score":3.5,"source_composite_score_0_10":3.5,"map_color":"#FEF3C7","map_opacity":0.6,"confidence":"Medium"}},{"type":"Feature","geometry":{"type":"Point","coordinates":[-2.0,13.0]},"properties":{"actor":"USA","actor_slug":"usa","country":"Burkina Faso","iso3":"BFA","region":"Africa","layer_status":"Source-complete","last_updated":"2026-05-20","notes":"Automated screening pass: row uses a primary source URL by actor/subfactor; verify with country-specific evidence before final analytical use.","publication_status":"Source-complete","data_status":"Needs review","demo_warning":"Workbook score is source-complete screening data and should be verified before final analytical use.","composite_score":2.75,"source_composite_score_0_10":2.75,"map_color":"#A7F3D0","map_opacity":0.5,"confidence":"Medium"}},{"type":"Feature","geometry":{"type":"Point","coordinates":[30.0,-3.5]},"properties":{"actor":"USA","actor_slug":"usa","country":"Burundi","iso3":"BDI","region":"Africa","layer_status":"Source-complete","last_updated":"2026-05-20","notes":"Automated screening pass: row uses a primary source URL by actor/subfactor; verify with country-specific evidence before final analytical use.","publication_status":"Source-complete","data_status":"Needs review","demo_warning":"Workbook score is source-complete screening data and should be verified before final analytical use.","composite_score":2.75,"source_composite_score_0_10":2.75,"map_color":"#A7F3D0","map_opacity":0.5,"confidence":"Medium"}},{"type":"Feature","geometry":{"type":"Point","coordinates":[105.0,13.0]},"properties":{"actor":"USA","actor_slug":"usa","country":"Cambodia","iso3":"KHM","region":"Asia","layer_status":"Source-complete","last_updated":"2026-05-20","notes":"Automated screening pass: row uses a primary source URL by actor/subfactor; verify with country-specific evidence before final analytical use.","publication_status":"Source-complete","data_status":"Needs review","demo_warning":"Workbook score is source-complete screening data and should be verified before final analytical use.","composite_score":2.0,"source_composite_score_0_10":2.0,"map_color":"#A7F3D0","map_opacity":0.45,"confidence":"Low"}},{"type":"Feature","geometry":{"type":"Point","coordinates":[12.0,6.0]},"properties":{"actor":"USA","actor_slug":"usa","country":"Cameroon","iso3":"CMR","region":"Africa","layer_status":"Source-complete","last_updated":"2026-05-20","notes":"Automated screening pass: row uses a primary source URL by actor/subfactor; verify with country-specific evidence before final analytical use.","publication_status":"Source-complete","data_status":"Needs review","demo_warning":"Workbook score is source-complete screening data and should be verified before final analytical use.","composite_score":2.75,"source_composite_score_0_10":2.75,"map_color":"#A7F3D0","map_opacity":0.5,"confidence":"Medium"}},{"type":"Feature","geometry":{"type":"Point","coordinates":[-95.0,60.0]},"properties":{"actor":"USA","actor_slug":"usa","country":"Canada","iso3":"CAN","region":"Americas","layer_status":"Source-complete","last_updated":"2026-05-20","notes":"Automated screening pass: row uses a primary source URL by actor/subfactor; verify with country-specific evidence before final analytical use.","publication_status":"Source-complete","data_status":"Needs review","demo_warning":"Workbook score is source-complete screening data and should be verified before final analytical use.","composite_score":4.0,"source_composite_score_0_10":4.0,"map_color":"#FDE68A","map_opacity":0.6,"confidence":"Medium"}},{"type":"Feature","geometry":{"type":"Point","coordinates":[21.0,7.0]},"properties":{"actor":"USA","actor_slug":"usa","country":"Central African Republic","iso3":"CAF","region":"Africa","layer_status":"Source-complete","last_updated":"2026-05-20","notes":"Automated screening pass: row uses a primary source URL by actor/subfactor; verify with country-specific evidence before final analytical use.","publication_status":"Source-complete","data_status":"Needs review","demo_warning":"Workbook score is source-complete screening data and should be verified before final analytical use.","composite_score":2.75,"source_composite_score_0_10":2.75,"map_color":"#A7F3D0","map_opacity":0.5,"confidence":"Medium"}},{"type":"Feature","geometry":{"type":"Point","coordinates":[19.0,15.0]},"properties":{"actor":"USA","actor_slug":"usa","country":"Chad","iso3":"TCD","region":"Africa","layer_status":"Source-complete","last_updated":"2026-05-20","notes":"Automated screening pass: row uses a primary source URL by actor/subfactor; verify with country-specific evidence before final analytical use.","publication_status":"Source-complete","data_status":"Needs review","demo_warning":"Workbook score is source-complete screening data and should be verified before final analytical use.","composite_score":2.75,"source_composite_score_0_10":2.75,"map_color":"#A7F3D0","map_opacity":0.5,"confidence":"Medium"}},{"type":"Feature","geometry":{"type":"Point","coordinates":[-71.0,-30.0]},"properties":{"actor":"USA","actor_slug":"usa","country":"Chile","iso3":"CHL","region":"Americas","layer_status":"Source-complete","last_updated":"2026-05-20","notes":"Automated screening pass: row uses a primary source URL by actor/subfactor; verify with country-specific evidence before final analytical use.","publication_status":"Source-complete","data_status":"Needs review","demo_warning":"Workbook score is source-complete screening data and should be verified before final analytical use.","composite_score":2.75,"source_composite_score_0_10":2.75,"map_color":"#A7F3D0","map_opacity":0.5,"confidence":"Medium"}},{"type":"Feature","geometry":{"type":"Point","coordinates":[105.0,35.0]},"properties":{"actor":"USA","actor_slug":"usa","country":"China","iso3":"CHN","region":"Asia","layer_status":"Source-complete","last_updated":"2026-05-20","notes":"Automated screening pass: row uses a primary source URL by actor/subfactor; verify with country-specific evidence before final analytical use.","publication_status":"Source-complete","data_status":"Needs review","demo_warning":"Workbook score is source-complete screening data and should be verified before final analytical use.","composite_score":3.0,"source_composite_score_0_10":3.0,"map_color":"#FEF3C7","map_opacity":0.5,"confidence":"Medium"}},{"type":"Feature","geometry":{"type":"Point","coordinates":[-72.0,4.0]},"properties":{"actor":"USA","actor_slug":"usa","country":"Colombia","iso3":"COL","region":"Americas","layer_status":"Source-complete","last_updated":"2026-05-20","notes":"Automated screening pass: row uses a primary source URL by actor/subfactor; verify with country-specific evidence before final analytical use.","publication_status":"Source-complete","data_status":"Needs review","demo_warning":"Workbook score is source-complete screening data and should be verified before final analytical use.","composite_score":2.75,"source_composite_score_0_10":2.75,"map_color":"#A7F3D0","map_opacity":0.5,"confidence":"Medium"}},{"type":"Feature","geometry":{"type":"Point","coordinates":[-159.76666666,-21.23333333]},"properties":{"actor":"USA","actor_slug":"usa","country":"Cook Islands","iso3":"COK","region":"Oceania","layer_status":"Source-complete","last_updated":"2026-05-20","notes":"Automated screening pass: row uses a primary source URL by actor/subfactor; verify with country-specific evidence before final analytical use.","publication_status":"Source-complete","data_status":"Needs review","demo_warning":"Workbook score is source-complete screening data and should be verified before final analytical use.","composite_score":1.75,"source_composite_score_0_10":1.75,"map_color":"#D1FAE5","map_opacity":0.45,"confidence":"Low"}},{"type":"Feature","geometry":{"type":"Point","coordinates":[-80.0,21.5]},"properties":{"actor":"USA","actor_slug":"usa","country":"Cuba","iso3":"CUB","region":"Americas","layer_status":"Source-complete","last_updated":"2026-05-20","notes":"Automated screening pass: row uses a primary source URL by actor/subfactor; verify with country-specific evidence before final analytical use.","publication_status":"Source-complete","data_status":"Needs review","demo_warning":"Workbook score is source-complete screening data and should be verified before final analytical use.","composite_score":4.75,"source_composite_score_0_10":4.75,"map_color":"#FDE68A","map_opacity":0.6,"confidence":"Medium"}},{"type":"Feature","geometry":{"type":"Point","coordinates":[33.0,35.0]},"properties":{"actor":"USA","actor_slug":"usa","country":"Cyprus","iso3":"CYP","region":"Europe","layer_status":"Source-complete","last_updated":"2026-05-20","notes":"Automated screening pass: row uses a primary source URL by actor/subfactor; verify with country-specific evidence before final analytical use.","publication_status":"Source-complete","data_status":"Needs review","demo_warning":"Workbook score is source-complete screening data and should be verified before final analytical use.","composite_score":3.5,"source_composite_score_0_10":3.5,"map_color":"#FEF3C7","map_opacity":0.6,"confidence":"Medium"}},{"type":"Feature","geometry":{"type":"Point","coordinates":[15.5,49.75]},"properties":{"actor":"USA","actor_slug":"usa","country":"Czechia","iso3":"CZE","region":"Europe","layer_status":"Source-complete","last_updated":"2026-05-20","notes":"Automated screening pass: row uses a primary source URL by actor/subfactor; verify with country-specific evidence before final analytical use.","publication_status":"Source-complete","data_status":"Needs review","demo_warning":"Workbook score is source-complete screening data and should be verified before final analytical use.","composite_score":3.5,"source_composite_score_0_10":3.5,"map_color":"#FEF3C7","map_opacity":0.6,"confidence":"Medium"}},{"type":"Feature","geometry":{"type":"Point","coordinates":[25.0,0.0]},"properties":{"actor":"USA","actor_slug":"usa","country":"Democratic Republic of the Congo","iso3":"COD","region":"Africa","layer_status":"Source-complete","last_updated":"2026-05-20","notes":"Automated screening pass: row uses a primary source URL by actor/subfactor; verify with country-specific evidence before final analytical use.","publication_status":"Source-complete","data_status":"Needs review","demo_warning":"Workbook score is source-complete screening data and should be verified before final analytical use.","composite_score":2.75,"source_composite_score_0_10":2.75,"map_color":"#A7F3D0","map_opacity":0.5,"confidence":"Medium"}},{"type":"Feature","geometry":{"type":"Point","coordinates":[30.0,27.0]},"properties":{"actor":"USA","actor_slug":"usa","country":"Egypt","iso3":"EGY","region":"Africa","layer_status":"Source-complete","last_updated":"2026-05-20","notes":"Automated screening pass: row uses a primary source URL by actor/subfactor; verify with country-specific evidence before final analytical use.","publication_status":"Source-complete","data_status":"Needs review","demo_warning":"Workbook score is source-complete screening data and should be verified before final analytical use.","composite_score":2.75,"source_composite_score_0_10":2.75,"map_color":"#A7F3D0","map_opacity":0.5,"confidence":"Medium"}},{"type":"Feature","geometry":{"type":"Point","coordinates":[-88.91666666,13.83333333]},"properties":{"actor":"USA","actor_slug":"usa","country":"El Salvador","iso3":"SLV","region":"Americas","layer_status":"Source-complete","last_updated":"2026-05-20","notes":"Automated screening pass: row uses a primary source URL by actor/subfactor; verify with country-specific evidence before final analytical use.","publication_status":"Source-complete","data_status":"Needs review","demo_warning":"Workbook score is source-complete screening data and should be verified before final analytical use.","composite_score":2.75,"source_composite_score_0_10":2.75,"map_color":"#A7F3D0","map_opacity":0.5,"confidence":"Medium"}},{"type":"Feature","geometry":{"type":"Point","coordinates":[39.0,15.0]},"properties":{"actor":"USA","actor_slug":"usa","country":"Eritrea","iso3":"ERI","region":"Africa","layer_status":"Source-complete","last_updated":"2026-05-20","notes":"Automated screening pass: row uses a primary source URL by actor/subfactor; verify with country-specific evidence before final analytical use.","publication_status":"Source-complete","data_status":"Needs review","demo_warning":"Workbook score is source-complete screening data and should be verified before final analytical use.","composite_score":2.75,"source_composite_score_0_10":2.75,"map_color":"#A7F3D0","map_opacity":0.5,"confidence":"Medium"}},{"type":"Feature","geometry":{"type":"Point","coordinates":[26.0,59.0]},"properties":{"actor":"USA","actor_slug":"usa","country":"Estonia","iso3":"EST","region":"Europe","layer_status":"Source-complete","last_updated":"2026-05-20","notes":"Automated screening pass: row uses a primary source URL by actor/subfactor; verify with country-specific evidence before final analytical use.","publication_status":"Source-complete","data_status":"Needs review","demo_warning":"Workbook score is source-complete screening data and should be verified before final analytical use.","composite_score":3.5,"source_composite_score_0_10":3.5,"map_color":"#FEF3C7","map_opacity":0.6,"confidence":"Medium"}},{"type":"Feature","geometry":{"type":"Point","coordinates":[158.25,6.91666666]},"properties":{"actor":"USA","actor_slug":"usa","country":"Federated States of Micronesia","iso3":"FSM","region":"Oceania","layer_status":"Source-complete","last_updated":"2026-05-20","notes":"Automated screening pass: row uses a primary source URL by actor/subfactor; verify with country-specific evidence before final analytical use.","publication_status":"Source-complete","data_status":"Needs review","demo_warning":"Workbook score is source-complete screening data and should be verified before final analytical use.","composite_score":1.75,"source_composite_score_0_10":1.75,"map_color":"#D1FAE5","map_opacity":0.45,"confidence":"Low"}},{"type":"Feature","geometry":{"type":"Point","coordinates":[175.0,-18.0]},"properties":{"actor":"USA","actor_slug":"usa","country":"Fiji","iso3":"FJI","region":"Oceania","layer_status":"Source-complete","last_updated":"2026-05-20","notes":"Automated screening pass: row uses a primary source URL by actor/subfactor; verify with country-specific evidence before final analytical use.","publication_status":"Source-complete","data_status":"Needs review","demo_warning":"Workbook score is source-complete screening data and should be verified before final analytical use.","composite_score":1.75,"source_composite_score_0_10":1.75,"map_color":"#D1FAE5","map_opacity":0.45,"confidence":"Low"}},{"type":"Feature","geometry":{"type":"Point","coordinates":[26.0,64.0]},"properties":{"actor":"USA","actor_slug":"usa","country":"Finland","iso3":"FIN","region":"Europe","layer_status":"Source-complete","last_updated":"2026-05-20","notes":"Automated screening pass: row uses a primary source URL by actor/subfactor; verify with country-specific evidence before final analytical use.","publication_status":"Source-complete","data_status":"Needs review","demo_warning":"Workbook score is source-complete screening data and should be verified before final analytical use.","composite_score":3.5,"source_composite_score_0_10":3.5,"map_color":"#FEF3C7","map_opacity":0.6,"confidence":"Medium"}},{"type":"Feature","geometry":{"type":"Point","coordinates":[2.0,46.0]},"properties":{"actor":"USA","actor_slug":"usa","country":"France","iso3":"FRA","region":"Europe","layer_status":"Source-complete","last_updated":"2026-05-20","notes":"Automated screening pass: row uses a primary source URL by actor/subfactor; verify with country-specific evidence before final analytical use.","publication_status":"Source-complete","data_status":"Needs review","demo_warning":"Workbook score is source-complete screening data and should be verified before final analytical use.","composite_score":3.5,"source_composite_score_0_10":3.5,"map_color":"#FEF3C7","map_opacity":0.6,"confidence":"Medium"}},{"type":"Feature","geometry":{"type":"Point","coordinates":[43.5,42.0]},"properties":{"actor":"USA","actor_slug":"usa","country":"Georgia","iso3":"GEO","region":"Asia","layer_status":"Source-complete","last_updated":"2026-05-20","notes":"Automated screening pass: row uses a primary source URL by actor/subfactor; verify with country-specific evidence before final analytical use.","publication_status":"Source-complete","data_status":"Needs review","demo_warning":"Workbook score is source-complete screening data and should be verified before final analytical use.","composite_score":3.25,"source_composite_score_0_10":3.25,"map_color":"#FEF3C7","map_opacity":0.55,"confidence":"Medium"}},{"type":"Feature","geometry":{"type":"Point","coordinates":[9.0,51.0]},"properties":{"actor":"USA","actor_slug":"usa","country":"Germany","iso3":"DEU","region":"Europe","layer_status":"Source-complete","last_updated":"2026-05-20","notes":"Automated screening pass: row uses a primary source URL by actor/subfactor; verify with country-specific evidence before final analytical use.","publication_status":"Source-complete","data_status":"Needs review","demo_warning":"Workbook score is source-complete screening data and should be verified before final analytical use.","composite_score":3.5,"source_composite_score_0_10":3.5,"map_color":"#FEF3C7","map_opacity":0.6,"confidence":"Medium"}},{"type":"Feature","geometry":{"type":"Point","coordinates":[-2.0,8.0]},"properties":{"actor":"USA","actor_slug":"usa","country":"Ghana","iso3":"GHA","region":"Africa","layer_status":"Source-complete","last_updated":"2026-05-20","notes":"Automated screening pass: row uses a primary source URL by actor/subfactor; verify with country-specific evidence before final analytical use.","publication_status":"Source-complete","data_status":"Needs review","demo_warning":"Workbook score is source-complete screening data and should be verified before final analytical use.","composite_score":2.75,"source_composite_score_0_10":2.75,"map_color":"#A7F3D0","map_opacity":0.5,"confidence":"Medium"}},{"type":"Feature","geometry":{"type":"Point","coordinates":[22.0,39.0]},"properties":{"actor":"USA","actor_slug":"usa","country":"Greece","iso3":"GRC","region":"Europe","layer_status":"Source-complete","last_updated":"2026-05-20","notes":"Automated screening pass: row uses a primary source URL by actor/subfactor; verify with country-specific evidence before final analytical use.","publication_status":"Source-complete","data_status":"Needs review","demo_warning":"Workbook score is source-complete screening data and should be verified before final analytical use.","composite_score":3.5,"source_composite_score_0_10":3.5,"map_color":"#FEF3C7","map_opacity":0.6,"confidence":"Medium"}},{"type":"Feature","geometry":{"type":"Point","coordinates":[-10.0,11.0]},"properties":{"actor":"USA","actor_slug":"usa","country":"Guinea","iso3":"GIN","region":"Africa","layer_status":"Source-complete","last_updated":"2026-05-20","notes":"Automated screening pass: row uses a primary source URL by actor/subfactor; verify with country-specific evidence before final analytical use.","publication_status":"Source-complete","data_status":"Needs review","demo_warning":"Workbook score is source-complete screening data and should be verified before final analytical use.","composite_score":2.75,"source_composite_score_0_10":2.75,"map_color":"#A7F3D0","map_opacity":0.5,"confidence":"Medium"}},{"type":"Feature","geometry":{"type":"Point","coordinates":[-59.0,5.0]},"properties":{"actor":"USA","actor_slug":"usa","country":"Guyana","iso3":"GUY","region":"Americas","layer_status":"Source-complete","last_updated":"2026-05-20","notes":"Automated screening pass: row uses a primary source URL by actor/subfactor; verify with country-specific evidence before final analytical use.","publication_status":"Source-complete","data_status":"Needs review","demo_warning":"Workbook score is source-complete screening data and should be verified before final analytical use.","composite_score":2.75,"source_composite_score_0_10":2.75,"map_color":"#A7F3D0","map_opacity":0.5,"confidence":"Medium"}},{"type":"Feature","geometry":{"type":"Point","coordinates":[20.0,47.0]},"properties":{"actor":"USA","actor_slug":"usa","country":"Hungary","iso3":"HUN","region":"Europe","layer_status":"Source-complete","last_updated":"2026-05-20","notes":"Automated screening pass: row uses a primary source URL by actor/subfactor; verify with country-specific evidence before final analytical use.","publication_status":"Source-complete","data_status":"Needs review","demo_warning":"Workbook score is source-complete screening data and should be verified before final analytical use.","composite_score":3.5,"source_composite_score_0_10":3.5,"map_color":"#FEF3C7","map_opacity":0.6,"confidence":"Medium"}},{"type":"Feature","geometry":{"type":"Point","coordinates":[77.0,20.0]},"properties":{"actor":"USA","actor_slug":"usa","country":"India","iso3":"IND","region":"Asia","layer_status":"Source-complete","last_updated":"2026-05-20","notes":"Automated screening pass: row uses a primary source URL by actor/subfactor; verify with country-specific evidence before final analytical use.","publication_status":"Source-complete","data_status":"Needs review","demo_warning":"Workbook score is source-complete screening data and should be verified before final analytical use.","composite_score":2.75,"source_composite_score_0_10":2.75,"map_color":"#A7F3D0","map_opacity":0.5,"confidence":"Medium"}},{"type":"Feature","geometry":{"type":"Point","coordinates":[120.0,-5.0]},"properties":{"actor":"USA","actor_slug":"usa","country":"Indonesia","iso3":"IDN","region":"Asia","layer_status":"Source-complete","last_updated":"2026-05-20","notes":"Automated screening pass: row uses a primary source URL by actor/subfactor; verify with country-specific evidence before final analytical use.","publication_status":"Source-complete","data_status":"Needs review","demo_warning":"Workbook score is source-complete screening data and should be verified before final analytical use.","composite_score":2.0,"source_composite_score_0_10":2.0,"map_color":"#A7F3D0","map_opacity":0.45,"confidence":"Low"}},{"type":"Feature","geometry":{"type":"Point","coordinates":[53.0,32.0]},"properties":{"actor":"USA","actor_slug":"usa","country":"Iran","iso3":"IRN","region":"Asia","layer_status":"Source-complete","last_updated":"2026-05-20","notes":"Automated screening pass: row uses a primary source URL by actor/subfactor; verify with country-specific evidence before final analytical use.","publication_status":"Source-complete","data_status":"Needs review","demo_warning":"Workbook score is source-complete screening data and should be verified before final analytical use.","composite_score":3.25,"source_composite_score_0_10":3.25,"map_color":"#FEF3C7","map_opacity":0.5,"confidence":"Medium"}},{"type":"Feature","geometry":{"type":"Point","coordinates":[44.0,33.0]},"properties":{"actor":"USA","actor_slug":"usa","country":"Iraq","iso3":"IRQ","region":"Asia","layer_status":"Source-complete","last_updated":"2026-05-20","notes":"Automated screening pass: row uses a primary source URL by actor/subfactor; verify with country-specific evidence before final analytical use.","publication_status":"Source-complete","data_status":"Needs review","demo_warning":"Workbook score is source-complete screening data and should be verified before final analytical use.","composite_score":6.75,"source_composite_score_0_10":6.75,"map_color":"#FDBA74","map_opacity":0.8,"confidence":"High"}},{"type":"Feature","geometry":{"type":"Point","coordinates":[34.75,31.5]},"properties":{"actor":"USA","actor_slug":"usa","country":"Israel","iso3":"ISR","region":"Asia","layer_status":"Source-complete","last_updated":"2026-05-20","notes":"Automated screening pass: row uses a primary source URL by actor/subfactor; verify with country-specific evidence before final analytical use.","publication_status":"Source-complete","data_status":"Needs review","demo_warning":"Workbook score is source-complete screening data and should be verified before final analytical use.","composite_score":5.0,"source_composite_score_0_10":5.0,"map_color":"#FCD34D","map_opacity":0.6,"confidence":"Medium"}},{"type":"Feature","geometry":{"type":"Point","coordinates":[12.83333333,42.83333333]},"properties":{"actor":"USA","actor_slug":"usa","country":"Italy","iso3":"ITA","region":"Europe","layer_status":"Source-complete","last_updated":"2026-05-20","notes":"Automated screening pass: row uses a primary source URL by actor/subfactor; verify with country-specific evidence before final analytical use.","publication_status":"Source-complete","data_status":"Needs review","demo_warning":"Workbook score is source-complete screening data and should be verified before final analytical use.","composite_score":3.5,"source_composite_score_0_10":3.5,"map_color":"#FEF3C7","map_opacity":0.6,"confidence":"Medium"}},{"type":"Feature","geometry":{"type":"Point","coordinates":[138.0,36.0]},"properties":{"actor":"USA","actor_slug":"usa","country":"Japan","iso3":"JPN","region":"Asia","layer_status":"Source-complete","last_updated":"2026-05-20","notes":"Automated screening pass: row uses a primary source URL by actor/subfactor; verify with country-specific evidence before final analytical use.","publication_status":"Source-complete","data_status":"Needs review","demo_warning":"Workbook score is source-complete screening data and should be verified before final analytical use.","composite_score":5.0,"source_composite_score_0_10":5.0,"map_color":"#FCD34D","map_opacity":0.6,"confidence":"Medium"}},{"type":"Feature","geometry":{"type":"Point","coordinates":[36.0,31.0]},"properties":{"actor":"USA","actor_slug":"usa","country":"Jordan","iso3":"JOR","region":"Asia","layer_status":"Source-complete","last_updated":"2026-05-20","notes":"Automated screening pass: row uses a primary source URL by actor/subfactor; verify with country-specific evidence before final analytical use.","publication_status":"Source-complete","data_status":"Needs review","demo_warning":"Workbook score is source-complete screening data and should be verified before final analytical use.","composite_score":4.75,"source_composite_score_0_10":4.75,"map_color":"#FDE68A","map_opacity":0.6,"confidence":"Medium"}},{"type":"Feature","geometry":{"type":"Point","coordinates":[68.0,48.0]},"properties":{"actor":"USA","actor_slug":"usa","country":"Kazakhstan","iso3":"KAZ","region":"Asia","layer_status":"Source-complete","last_updated":"2026-05-20","notes":"Automated screening pass: row uses a primary source URL by actor/subfactor; verify with country-specific evidence before final analytical use.","publication_status":"Source-complete","data_status":"Needs review","demo_warning":"Workbook score is source-complete screening data and should be verified before final analytical use.","composite_score":2.25,"source_composite_score_0_10":2.25,"map_color":"#A7F3D0","map_opacity":0.45,"confidence":"Low"}},{"type":"Feature","geometry":{"type":"Point","coordinates":[38.0,1.0]},"properties":{"actor":"USA","actor_slug":"usa","country":"Kenya","iso3":"KEN","region":"Africa","layer_status":"Source-complete","last_updated":"2026-05-20","notes":"Automated screening pass: row uses a primary source URL by actor/subfactor; verify with country-specific evidence before final analytical use.","publication_status":"Source-complete","data_status":"Needs review","demo_warning":"Workbook score is source-complete screening data and should be verified before final analytical use.","composite_score":2.75,"source_composite_score_0_10":2.75,"map_color":"#A7F3D0","map_opacity":0.5,"confidence":"Medium"}},{"type":"Feature","geometry":{"type":"Point","coordinates":[173.0,1.41666666]},"properties":{"actor":"USA","actor_slug":"usa","country":"Kiribati","iso3":"KIR","region":"Oceania","layer_status":"Source-complete","last_updated":"2026-05-20","notes":"Automated screening pass: row uses a primary source URL by actor/subfactor; verify with country-specific evidence before final analytical use.","publication_status":"Source-complete","data_status":"Needs review","demo_warning":"Workbook score is source-complete screening data and should be verified before final analytical use.","composite_score":1.75,"source_composite_score_0_10":1.75,"map_color":"#D1FAE5","map_opacity":0.45,"confidence":"Low"}},{"type":"Feature","geometry":{"type":"Point","coordinates":[45.75,29.5]},"properties":{"actor":"USA","actor_slug":"usa","country":"Kuwait","iso3":"KWT","region":"Asia","layer_status":"Source-complete","last_updated":"2026-05-20","notes":"Automated screening pass: row uses a primary source URL by actor/subfactor; verify with country-specific evidence before final analytical use.","publication_status":"Source-complete","data_status":"Needs review","demo_warning":"Workbook score is source-complete screening data and should be verified before final analytical use.","composite_score":4.75,"source_composite_score_0_10":4.75,"map_color":"#FDE68A","map_opacity":0.6,"confidence":"Medium"}},{"type":"Feature","geometry":{"type":"Point","coordinates":[75.0,41.0]},"properties":{"actor":"USA","actor_slug":"usa","country":"Kyrgyzstan","iso3":"KGZ","region":"Asia","layer_status":"Source-complete","last_updated":"2026-05-20","notes":"Automated screening pass: row uses a primary source URL by actor/subfactor; verify with country-specific evidence before final analytical use.","publication_status":"Source-complete","data_status":"Needs review","demo_warning":"Workbook score is source-complete screening data and should be verified before final analytical use.","composite_score":2.25,"source_composite_score_0_10":2.25,"map_color":"#A7F3D0","map_opacity":0.45,"confidence":"Low"}},{"type":"Feature","geometry":{"type":"Point","coordinates":[25.0,57.0]},"properties":{"actor":"USA","actor_slug":"usa","country":"Latvia","iso3":"LVA","region":"Europe","layer_status":"Source-complete","last_updated":"2026-05-20","notes":"Automated screening pass: row uses a primary source URL by actor/subfactor; verify with country-specific evidence before final analytical use.","publication_status":"Source-complete","data_status":"Needs review","demo_warning":"Workbook score is source-complete screening data and should be verified before final analytical use.","composite_score":3.5,"source_composite_score_0_10":3.5,"map_color":"#FEF3C7","map_opacity":0.6,"confidence":"Medium"}},{"type":"Feature","geometry":{"type":"Point","coordinates":[35.83333333,33.83333333]},"properties":{"actor":"USA","actor_slug":"usa","country":"Lebanon","iso3":"LBN","region":"Asia","layer_status":"Source-complete","last_updated":"2026-05-20","notes":"Automated screening pass: row uses a primary source URL by actor/subfactor; verify with country-specific evidence before final analytical use.","publication_status":"Source-complete","data_status":"Needs review","demo_warning":"Workbook score is source-complete screening data and should be verified before final analytical use.","composite_score":2.5,"source_composite_score_0_10":2.5,"map_color":"#A7F3D0","map_opacity":0.45,"confidence":"Low"}},{"type":"Feature","geometry":{"type":"Point","coordinates":[-9.5,6.5]},"properties":{"actor":"USA","actor_slug":"usa","country":"Liberia","iso3":"LBR","region":"Africa","layer_status":"Source-complete","last_updated":"2026-05-20","notes":"Automated screening pass: row uses a primary source URL by actor/subfactor; verify with country-specific evidence before final analytical use.","publication_status":"Source-complete","data_status":"Needs review","demo_warning":"Workbook score is source-complete screening data and should be verified before final analytical use.","composite_score":2.75,"source_composite_score_0_10":2.75,"map_color":"#A7F3D0","map_opacity":0.5,"confidence":"Medium"}},{"type":"Feature","geometry":{"type":"Point","coordinates":[17.0,25.0]},"properties":{"actor":"USA","actor_slug":"usa","country":"Libya","iso3":"LBY","region":"Africa","layer_status":"Source-complete","last_updated":"2026-05-20","notes":"Automated screening pass: row uses a primary source URL by actor/subfactor; verify with country-specific evidence before final analytical use.","publication_status":"Source-complete","data_status":"Needs review","demo_warning":"Workbook score is source-complete screening data and should be verified before final analytical use.","composite_score":2.75,"source_composite_score_0_10":2.75,"map_color":"#A7F3D0","map_opacity":0.5,"confidence":"Medium"}},{"type":"Feature","geometry":{"type":"Point","coordinates":[24.0,56.0]},"properties":{"actor":"USA","actor_slug":"usa","country":"Lithuania","iso3":"LTU","region":"Europe","layer_status":"Source-complete","last_updated":"2026-05-20","notes":"Automated screening pass: row uses a primary source URL by actor/subfactor; verify with country-specific evidence before final analytical use.","publication_status":"Source-complete","data_status":"Needs review","demo_warning":"Workbook score is source-complete screening data and should be verified before final analytical use.","composite_score":3.5,"source_composite_score_0_10":3.5,"map_color":"#FEF3C7","map_opacity":0.6,"confidence":"Medium"}},{"type":"Feature","geometry":{"type":"Point","coordinates":[47.0,-20.0]},"properties":{"actor":"USA","actor_slug":"usa","country":"Madagascar","iso3":"MDG","region":"Africa","layer_status":"Source-complete","last_updated":"2026-05-20","notes":"Automated screening pass: row uses a primary source URL by actor/subfactor; verify with country-specific evidence before final analytical use.","publication_status":"Source-complete","data_status":"Needs review","demo_warning":"Workbook score is source-complete screening data and should be verified before final analytical use.","composite_score":2.75,"source_composite_score_0_10":2.75,"map_color":"#A7F3D0","map_opacity":0.5,"confidence":"Medium"}},{"type":"Feature","geometry":{"type":"Point","coordinates":[112.5,2.5]},"properties":{"actor":"USA","actor_slug":"usa","country":"Malaysia","iso3":"MYS","region":"Asia","layer_status":"Source-complete","last_updated":"2026-05-20","notes":"Automated screening pass: row uses a primary source URL by actor/subfactor; verify with country-specific evidence before final analytical use.","publication_status":"Source-complete","data_status":"Needs review","demo_warning":"Workbook score is source-complete screening data and should be verified before final analytical use.","composite_score":2.0,"source_composite_score_0_10":2.0,"map_color":"#A7F3D0","map_opacity":0.45,"confidence":"Low"}},{"type":"Feature","geometry":{"type":"Point","coordinates":[-4.0,17.0]},"properties":{"actor":"USA","actor_slug":"usa","country":"Mali","iso3":"MLI","region":"Africa","layer_status":"Source-complete","last_updated":"2026-05-20","notes":"Automated screening pass: row uses a primary source URL by actor/subfactor; verify with country-specific evidence before final analytical use.","publication_status":"Source-complete","data_status":"Needs review","demo_warning":"Workbook score is source-complete screening data and should be verified before final analytical use.","composite_score":2.75,"source_composite_score_0_10":2.75,"map_color":"#A7F3D0","map_opacity":0.5,"confidence":"Medium"}},{"type":"Feature","geometry":{"type":"Point","coordinates":[168.0,9.0]},"properties":{"actor":"USA","actor_slug":"usa","country":"Marshall Islands","iso3":"MHL","region":"Oceania","layer_status":"Source-complete","last_updated":"2026-05-20","notes":"Automated screening pass: row uses a primary source URL by actor/subfactor; verify with country-specific evidence before final analytical use.","publication_status":"Source-complete","data_status":"Needs review","demo_warning":"Workbook score is source-complete screening data and should be verified before final analytical use.","composite_score":1.75,"source_composite_score_0_10":1.75,"map_color":"#D1FAE5","map_opacity":0.45,"confidence":"Low"}},{"type":"Feature","geometry":{"type":"Point","coordinates":[-12.0,20.0]},"properties":{"actor":"USA","actor_slug":"usa","country":"Mauritania","iso3":"MRT","region":"Africa","layer_status":"Source-complete","last_updated":"2026-05-20","notes":"Automated screening pass: row uses a primary source URL by actor/subfactor; verify with country-specific evidence before final analytical use.","publication_status":"Source-complete","data_status":"Needs review","demo_warning":"Workbook score is source-complete screening data and should be verified before final analytical use.","composite_score":2.75,"source_composite_score_0_10":2.75,"map_color":"#A7F3D0","map_opacity":0.5,"confidence":"Medium"}},{"type":"Feature","geometry":{"type":"Point","coordinates":[29.0,47.0]},"properties":{"actor":"USA","actor_slug":"usa","country":"Moldova","iso3":"MDA","region":"Europe","layer_status":"Source-complete","last_updated":"2026-05-20","notes":"Automated screening pass: row uses a primary source URL by actor/subfactor; verify with country-specific evidence before final analytical use.","publication_status":"Source-complete","data_status":"Needs review","demo_warning":"Workbook score is source-complete screening data and should be verified before final analytical use.","composite_score":3.25,"source_composite_score_0_10":3.25,"map_color":"#FEF3C7","map_opacity":0.55,"confidence":"Medium"}},{"type":"Feature","geometry":{"type":"Point","coordinates":[105.0,46.0]},"properties":{"actor":"USA","actor_slug":"usa","country":"Mongolia","iso3":"MNG","region":"Asia","layer_status":"Source-complete","last_updated":"2026-05-20","notes":"Automated screening pass: row uses a primary source URL by actor/subfactor; verify with country-specific evidence before final analytical use.","publication_status":"Source-complete","data_status":"Needs review","demo_warning":"Workbook score is source-complete screening data and should be verified before final analytical use.","composite_score":2.0,"source_composite_score_0_10":2.0,"map_color":"#A7F3D0","map_opacity":0.45,"confidence":"Low"}},{"type":"Feature","geometry":{"type":"Point","coordinates":[-5.0,32.0]},"properties":{"actor":"USA","actor_slug":"usa","country":"Morocco","iso3":"MAR","region":"Africa","layer_status":"Source-complete","last_updated":"2026-05-20","notes":"Automated screening pass: row uses a primary source URL by actor/subfactor; verify with country-specific evidence before final analytical use.","publication_status":"Source-complete","data_status":"Needs review","demo_warning":"Workbook score is source-complete screening data and should be verified before final analytical use.","composite_score":2.75,"source_composite_score_0_10":2.75,"map_color":"#A7F3D0","map_opacity":0.5,"confidence":"Medium"}},{"type":"Feature","geometry":{"type":"Point","coordinates":[35.0,-18.25]},"properties":{"actor":"USA","actor_slug":"usa","country":"Mozambique","iso3":"MOZ","region":"Africa","layer_status":"Source-complete","last_updated":"2026-05-20","notes":"Automated screening pass: row uses a primary source URL by actor/subfactor; verify with country-specific evidence before final analytical use.","publication_status":"Source-complete","data_status":"Needs review","demo_warning":"Workbook score is source-complete screening data and should be verified before final analytical use.","composite_score":2.75,"source_composite_score_0_10":2.75,"map_color":"#A7F3D0","map_opacity":0.5,"confidence":"Medium"}},{"type":"Feature","geometry":{"type":"Point","coordinates":[98.0,22.0]},"properties":{"actor":"USA","actor_slug":"usa","country":"Myanmar","iso3":"MMR","region":"Asia","layer_status":"Source-complete","last_updated":"2026-05-20","notes":"Automated screening pass: row uses a primary source URL by actor/subfactor; verify with country-specific evidence before final analytical use.","publication_status":"Source-complete","data_status":"Needs review","demo_warning":"Workbook score is source-complete screening data and should be verified before final analytical use.","composite_score":2.25,"source_composite_score_0_10":2.25,"map_color":"#A7F3D0","map_opacity":0.45,"confidence":"Low"}},{"type":"Feature","geometry":{"type":"Point","coordinates":[166.91666666,-0.53333333]},"properties":{"actor":"USA","actor_slug":"usa","country":"Nauru","iso3":"NRU","region":"Oceania","layer_status":"Source-complete","last_updated":"2026-05-20","notes":"Automated screening pass: row uses a primary source URL by actor/subfactor; verify with country-specific evidence before final analytical use.","publication_status":"Source-complete","data_status":"Needs review","demo_warning":"Workbook score is source-complete screening data and should be verified before final analytical use.","composite_score":1.75,"source_composite_score_0_10":1.75,"map_color":"#D1FAE5","map_opacity":0.45,"confidence":"Low"}},{"type":"Feature","geometry":{"type":"Point","coordinates":[5.75,52.5]},"properties":{"actor":"USA","actor_slug":"usa","country":"Netherlands","iso3":"NLD","region":"Europe","layer_status":"Source-complete","last_updated":"2026-05-20","notes":"Automated screening pass: row uses a primary source URL by actor/subfactor; verify with country-specific evidence before final analytical use.","publication_status":"Source-complete","data_status":"Needs review","demo_warning":"Workbook score is source-complete screening data and should be verified before final analytical use.","composite_score":3.5,"source_composite_score_0_10":3.5,"map_color":"#FEF3C7","map_opacity":0.6,"confidence":"Medium"}},{"type":"Feature","geometry":{"type":"Point","coordinates":[165.5,-21.5]},"properties":{"actor":"USA","actor_slug":"usa","country":"New Caledonia","iso3":"NCL","region":"Oceania","layer_status":"Source-complete","last_updated":"2026-05-20","notes":"Automated screening pass: row uses a primary source URL by actor/subfactor; verify with country-specific evidence before final analytical use.","publication_status":"Source-complete","data_status":"Needs review","demo_warning":"Workbook score is source-complete screening data and should be verified before final analytical use.","composite_score":1.75,"source_composite_score_0_10":1.75,"map_color":"#D1FAE5","map_opacity":0.45,"confidence":"Low"}},{"type":"Feature","geometry":{"type":"Point","coordinates":[174.0,-41.0]},"properties":{"actor":"USA","actor_slug":"usa","country":"New Zealand","iso3":"NZL","region":"Oceania","layer_status":"Source-complete","last_updated":"2026-05-20","notes":"Automated screening pass: row uses a primary source URL by actor/subfactor; verify with country-specific evidence before final analytical use.","publication_status":"Source-complete","data_status":"Needs review","demo_warning":"Workbook score is source-complete screening data and should be verified before final analytical use.","composite_score":3.0,"source_composite_score_0_10":3.0,"map_color":"#FEF3C7","map_opacity":0.5,"confidence":"Medium"}},{"type":"Feature","geometry":{"type":"Point","coordinates":[-85.0,13.0]},"properties":{"actor":"USA","actor_slug":"usa","country":"Nicaragua","iso3":"NIC","region":"Americas","layer_status":"Source-complete","last_updated":"2026-05-20","notes":"Automated screening pass: row uses a primary source URL by actor/subfactor; verify with country-specific evidence before final analytical use.","publication_status":"Source-complete","data_status":"Needs review","demo_warning":"Workbook score is source-complete screening data and should be verified before final analytical use.","composite_score":4.25,"source_composite_score_0_10":4.25,"map_color":"#FDE68A","map_opacity":0.6,"confidence":"Medium"}},{"type":"Feature","geometry":{"type":"Point","coordinates":[8.0,16.0]},"properties":{"actor":"USA","actor_slug":"usa","country":"Niger","iso3":"NER","region":"Africa","layer_status":"Source-complete","last_updated":"2026-05-20","notes":"Automated screening pass: row uses a primary source URL by actor/subfactor; verify with country-specific evidence before final analytical use.","publication_status":"Source-complete","data_status":"Needs review","demo_warning":"Workbook score is source-complete screening data and should be verified before final analytical use.","composite_score":2.75,"source_composite_score_0_10":2.75,"map_color":"#A7F3D0","map_opacity":0.5,"confidence":"Medium"}},{"type":"Feature","geometry":{"type":"Point","coordinates":[8.0,10.0]},"properties":{"actor":"USA","actor_slug":"usa","country":"Nigeria","iso3":"NGA","region":"Africa","layer_status":"Source-complete","last_updated":"2026-05-20","notes":"Automated screening pass: row uses a primary source URL by actor/subfactor; verify with country-specific evidence before final analytical use.","publication_status":"Source-complete","data_status":"Needs review","demo_warning":"Workbook score is source-complete screening data and should be verified before final analytical use.","composite_score":2.75,"source_composite_score_0_10":2.75,"map_color":"#A7F3D0","map_opacity":0.5,"confidence":"Medium"}},{"type":"Feature","geometry":{"type":"Point","coordinates":[127.0,40.0]},"properties":{"actor":"USA","actor_slug":"usa","country":"North Korea","iso3":"PRK","region":"Asia","layer_status":"Source-complete","last_updated":"2026-05-20","notes":"Automated screening pass: row uses a primary source URL by actor/subfactor; verify with country-specific evidence before final analytical use.","publication_status":"Source-complete","data_status":"Needs review","demo_warning":"Workbook score is source-complete screening data and should be verified before final analytical use.","composite_score":3.0,"source_composite_score_0_10":3.0,"map_color":"#FEF3C7","map_opacity":0.45,"confidence":"Low"}},{"type":"Feature","geometry":{"type":"Point","coordinates":[10.0,62.0]},"properties":{"actor":"USA","actor_slug":"usa","country":"Norway","iso3":"NOR","region":"Europe","layer_status":"Source-complete","last_updated":"2026-05-20","notes":"Automated screening pass: row uses a primary source URL by actor/subfactor; verify with country-specific evidence before final analytical use.","publication_status":"Source-complete","data_status":"Needs review","demo_warning":"Workbook score is source-complete screening data and should be verified before final analytical use.","composite_score":3.5,"source_composite_score_0_10":3.5,"map_color":"#FEF3C7","map_opacity":0.6,"confidence":"Medium"}},{"type":"Feature","geometry":{"type":"Point","coordinates":[57.0,21.0]},"properties":{"actor":"USA","actor_slug":"usa","country":"Oman","iso3":"OMN","region":"Asia","layer_status":"Source-complete","last_updated":"2026-05-20","notes":"Automated screening pass: row uses a primary source URL by actor/subfactor; verify with country-specific evidence before final analytical use.","publication_status":"Source-complete","data_status":"Needs review","demo_warning":"Workbook score is source-complete screening data and should be verified before final analytical use.","composite_score":2.5,"source_composite_score_0_10":2.5,"map_color":"#A7F3D0","map_opacity":0.45,"confidence":"Low"}},{"type":"Feature","geometry":{"type":"Point","coordinates":[134.5,7.5]},"properties":{"actor":"USA","actor_slug":"usa","country":"Palau","iso3":"PLW","region":"Oceania","layer_status":"Source-complete","last_updated":"2026-05-20","notes":"Automated screening pass: row uses a primary source URL by actor/subfactor; verify with country-specific evidence before final analytical use.","publication_status":"Source-complete","data_status":"Needs review","demo_warning":"Workbook score is source-complete screening data and should be verified before final analytical use.","composite_score":1.75,"source_composite_score_0_10":1.75,"map_color":"#D1FAE5","map_opacity":0.45,"confidence":"Low"}},{"type":"Feature","geometry":{"type":"Point","coordinates":[35.2332,31.9522]},"properties":{"actor":"USA","actor_slug":"usa","country":"Palestine","iso3":"PSE","region":"Asia","layer_status":"Source-complete","last_updated":"2026-05-20","notes":"Automated screening pass: row uses a primary source URL by actor/subfactor; verify with country-specific evidence before final analytical use.","publication_status":"Source-complete","data_status":"Needs review","demo_warning":"Workbook score is source-complete screening data and should be verified before final analytical use.","composite_score":2.5,"source_composite_score_0_10":2.5,"map_color":"#A7F3D0","map_opacity":0.45,"confidence":"Low"}},{"type":"Feature","geometry":{"type":"Point","coordinates":[147.0,-6.0]},"properties":{"actor":"USA","actor_slug":"usa","country":"Papua New Guinea","iso3":"PNG","region":"Oceania","layer_status":"Source-complete","last_updated":"2026-05-20","notes":"Automated screening pass: row uses a primary source URL by actor/subfactor; verify with country-specific evidence before final analytical use.","publication_status":"Source-complete","data_status":"Needs review","demo_warning":"Workbook score is source-complete screening data and should be verified before final analytical use.","composite_score":1.75,"source_composite_score_0_10":1.75,"map_color":"#D1FAE5","map_opacity":0.45,"confidence":"Low"}},{"type":"Feature","geometry":{"type":"Point","coordinates":[-76.0,-10.0]},"properties":{"actor":"USA","actor_slug":"usa","country":"Peru","iso3":"PER","region":"Americas","layer_status":"Source-complete","last_updated":"2026-05-20","notes":"Automated screening pass: row uses a primary source URL by actor/subfactor; verify with country-specific evidence before final analytical use.","publication_status":"Source-complete","data_status":"Needs review","demo_warning":"Workbook score is source-complete screening data and should be verified before final analytical use.","composite_score":2.75,"source_composite_score_0_10":2.75,"map_color":"#A7F3D0","map_opacity":0.5,"confidence":"Medium"}},{"type":"Feature","geometry":{"type":"Point","coordinates":[122.0,13.0]},"properties":{"actor":"USA","actor_slug":"usa","country":"Philippines","iso3":"PHL","region":"Asia","layer_status":"Source-complete","last_updated":"2026-05-20","notes":"Automated screening pass: row uses a primary source URL by actor/subfactor; verify with country-specific evidence before final analytical use.","publication_status":"Source-complete","data_status":"Needs review","demo_warning":"Workbook score is source-complete screening data and should be verified before final analytical use.","composite_score":4.5,"source_composite_score_0_10":4.5,"map_color":"#FDE68A","map_opacity":0.6,"confidence":"Medium"}},{"type":"Feature","geometry":{"type":"Point","coordinates":[20.0,52.0]},"properties":{"actor":"USA","actor_slug":"usa","country":"Poland","iso3":"POL","region":"Europe","layer_status":"Source-complete","last_updated":"2026-05-20","notes":"Automated screening pass: row uses a primary source URL by actor/subfactor; verify with country-specific evidence before final analytical use.","publication_status":"Source-complete","data_status":"Needs review","demo_warning":"Workbook score is source-complete screening data and should be verified before final analytical use.","composite_score":3.5,"source_composite_score_0_10":3.5,"map_color":"#FEF3C7","map_opacity":0.6,"confidence":"Medium"}},{"type":"Feature","geometry":{"type":"Point","coordinates":[51.25,25.5]},"properties":{"actor":"USA","actor_slug":"usa","country":"Qatar","iso3":"QAT","region":"Asia","layer_status":"Source-complete","last_updated":"2026-05-20","notes":"Automated screening pass: row uses a primary source URL by actor/subfactor; verify with country-specific evidence before final analytical use.","publication_status":"Source-complete","data_status":"Needs review","demo_warning":"Workbook score is source-complete screening data and should be verified before final analytical use.","composite_score":4.75,"source_composite_score_0_10":4.75,"map_color":"#FDE68A","map_opacity":0.6,"confidence":"Medium"}},{"type":"Feature","geometry":{"type":"Point","coordinates":[15.0,-1.0]},"properties":{"actor":"USA","actor_slug":"usa","country":"Republic of the Congo","iso3":"COG","region":"Africa","layer_status":"Source-complete","last_updated":"2026-05-20","notes":"Automated screening pass: row uses a primary source URL by actor/subfactor; verify with country-specific evidence before final analytical use.","publication_status":"Source-complete","data_status":"Needs review","demo_warning":"Workbook score is source-complete screening data and should be verified before final analytical use.","composite_score":2.75,"source_composite_score_0_10":2.75,"map_color":"#A7F3D0","map_opacity":0.5,"confidence":"Medium"}},{"type":"Feature","geometry":{"type":"Point","coordinates":[25.0,46.0]},"properties":{"actor":"USA","actor_slug":"usa","country":"Romania","iso3":"ROU","region":"Europe","layer_status":"Source-complete","last_updated":"2026-05-20","notes":"Automated screening pass: row uses a primary source URL by actor/subfactor; verify with country-specific evidence before final analytical use.","publication_status":"Source-complete","data_status":"Needs review","demo_warning":"Workbook score is source-complete screening data and should be verified before final analytical use.","composite_score":3.5,"source_composite_score_0_10":3.5,"map_color":"#FEF3C7","map_opacity":0.6,"confidence":"Medium"}},{"type":"Feature","geometry":{"type":"Point","coordinates":[100.0,60.0]},"properties":{"actor":"USA","actor_slug":"usa","country":"Russia","iso3":"RUS","region":"Europe","layer_status":"Source-complete","last_updated":"2026-05-20","notes":"Automated screening pass: row uses a primary source URL by actor/subfactor; verify with country-specific evidence before final analytical use.","publication_status":"Source-complete","data_status":"Needs review","demo_warning":"Workbook score is source-complete screening data and should be verified before final analytical use.","composite_score":3.25,"source_composite_score_0_10":3.25,"map_color":"#FEF3C7","map_opacity":0.5,"confidence":"Medium"}},{"type":"Feature","geometry":{"type":"Point","coordinates":[30.0,-2.0]},"properties":{"actor":"USA","actor_slug":"usa","country":"Rwanda","iso3":"RWA","region":"Africa","layer_status":"Source-complete","last_updated":"2026-05-20","notes":"Automated screening pass: row uses a primary source URL by actor/subfactor; verify with country-specific evidence before final analytical use.","publication_status":"Source-complete","data_status":"Needs review","demo_warning":"Workbook score is source-complete screening data and should be verified before final analytical use.","composite_score":2.75,"source_composite_score_0_10":2.75,"map_color":"#A7F3D0","map_opacity":0.5,"confidence":"Medium"}},{"type":"Feature","geometry":{"type":"Point","coordinates":[-172.33333333,-13.58333333]},"properties":{"actor":"USA","actor_slug":"usa","country":"Samoa","iso3":"WSM","region":"Oceania","layer_status":"Source-complete","last_updated":"2026-05-20","notes":"Automated screening pass: row uses a primary source URL by actor/subfactor; verify with country-specific evidence before final analytical use.","publication_status":"Source-complete","data_status":"Needs review","demo_warning":"Workbook score is source-complete screening data and should be verified before final analytical use.","composite_score":1.75,"source_composite_score_0_10":1.75,"map_color":"#D1FAE5","map_opacity":0.45,"confidence":"Low"}},{"type":"Feature","geometry":{"type":"Point","coordinates":[45.0,25.0]},"properties":{"actor":"USA","actor_slug":"usa","country":"Saudi Arabia","iso3":"SAU","region":"Asia","layer_status":"Source-complete","last_updated":"2026-05-20","notes":"Automated screening pass: row uses a primary source URL by actor/subfactor; verify with country-specific evidence before final analytical use.","publication_status":"Source-complete","data_status":"Needs review","demo_warning":"Workbook score is source-complete screening data and should be verified before final analytical use.","composite_score":4.75,"source_composite_score_0_10":4.75,"map_color":"#FDE68A","map_opacity":0.6,"confidence":"Medium"}},{"type":"Feature","geometry":{"type":"Point","coordinates":[16.4284181,44.1305021]},"properties":{"actor":"USA","actor_slug":"usa","country":"Serbia","iso3":"SRB","region":"Europe","layer_status":"Source-complete","last_updated":"2026-05-20","notes":"Automated screening pass: row uses a primary source URL by actor/subfactor; verify with country-specific evidence before final analytical use.","publication_status":"Source-complete","data_status":"Needs review","demo_warning":"Workbook score is source-complete screening data and should be verified before final analytical use.","composite_score":2.5,"source_composite_score_0_10":2.5,"map_color":"#A7F3D0","map_opacity":0.5,"confidence":"Medium"}},{"type":"Feature","geometry":{"type":"Point","coordinates":[103.8,1.36666666]},"properties":{"actor":"USA","actor_slug":"usa","country":"Singapore","iso3":"SGP","region":"Asia","layer_status":"Source-complete","last_updated":"2026-05-20","notes":"Automated screening pass: row uses a primary source URL by actor/subfactor; verify with country-specific evidence before final analytical use.","publication_status":"Source-complete","data_status":"Needs review","demo_warning":"Workbook score is source-complete screening data and should be verified before final analytical use.","composite_score":2.75,"source_composite_score_0_10":2.75,"map_color":"#A7F3D0","map_opacity":0.5,"confidence":"Medium"}},{"type":"Feature","geometry":{"type":"Point","coordinates":[19.5,48.66666666]},"properties":{"actor":"USA","actor_slug":"usa","country":"Slovakia","iso3":"SVK","region":"Europe","layer_status":"Source-complete","last_updated":"2026-05-20","notes":"Automated screening pass: row uses a primary source URL by actor/subfactor; verify with country-specific evidence before final analytical use.","publication_status":"Source-complete","data_status":"Needs review","demo_warning":"Workbook score is source-complete screening data and should be verified before final analytical use.","composite_score":3.5,"source_composite_score_0_10":3.5,"map_color":"#FEF3C7","map_opacity":0.6,"confidence":"Medium"}},{"type":"Feature","geometry":{"type":"Point","coordinates":[159.0,-8.0]},"properties":{"actor":"USA","actor_slug":"usa","country":"Solomon Islands","iso3":"SLB","region":"Oceania","layer_status":"Source-complete","last_updated":"2026-05-20","notes":"Automated screening pass: row uses a primary source URL by actor/subfactor; verify with country-specific evidence before final analytical use.","publication_status":"Source-complete","data_status":"Needs review","demo_warning":"Workbook score is source-complete screening data and should be verified before final analytical use.","composite_score":1.75,"source_composite_score_0_10":1.75,"map_color":"#D1FAE5","map_opacity":0.45,"confidence":"Low"}},{"type":"Feature","geometry":{"type":"Point","coordinates":[24.0,-29.0]},"properties":{"actor":"USA","actor_slug":"usa","country":"South Africa","iso3":"ZAF","region":"Africa","layer_status":"Source-complete","last_updated":"2026-05-20","notes":"Automated screening pass: row uses a primary source URL by actor/subfactor; verify with country-specific evidence before final analytical use.","publication_status":"Source-complete","data_status":"Needs review","demo_warning":"Workbook score is source-complete screening data and should be verified before final analytical use.","composite_score":2.75,"source_composite_score_0_10":2.75,"map_color":"#A7F3D0","map_opacity":0.5,"confidence":"Medium"}},{"type":"Feature","geometry":{"type":"Point","coordinates":[127.5,37.0]},"properties":{"actor":"USA","actor_slug":"usa","country":"South Korea","iso3":"KOR","region":"Asia","layer_status":"Source-complete","last_updated":"2026-05-20","notes":"Automated screening pass: row uses a primary source URL by actor/subfactor; verify with country-specific evidence before final analytical use.","publication_status":"Source-complete","data_status":"Needs review","demo_warning":"Workbook score is source-complete screening data and should be verified before final analytical use.","composite_score":5.0,"source_composite_score_0_10":5.0,"map_color":"#FCD34D","map_opacity":0.6,"confidence":"Medium"}},{"type":"Feature","geometry":{"type":"Point","coordinates":[-4.0,40.0]},"properties":{"actor":"USA","actor_slug":"usa","country":"Spain","iso3":"ESP","region":"Europe","layer_status":"Source-complete","last_updated":"2026-05-20","notes":"Automated screening pass: row uses a primary source URL by actor/subfactor; verify with country-specific evidence before final analytical use.","publication_status":"Source-complete","data_status":"Needs review","demo_warning":"Workbook score is source-complete screening data and should be verified before final analytical use.","composite_score":3.5,"source_composite_score_0_10":3.5,"map_color":"#FEF3C7","map_opacity":0.6,"confidence":"Medium"}},{"type":"Feature","geometry":{"type":"Point","coordinates":[81.0,7.0]},"properties":{"actor":"USA","actor_slug":"usa","country":"Sri Lanka","iso3":"LKA","region":"Asia","layer_status":"Source-complete","last_updated":"2026-05-20","notes":"Automated screening pass: row uses a primary source URL by actor/subfactor; verify with country-specific evidence before final analytical use.","publication_status":"Source-complete","data_status":"Needs review","demo_warning":"Workbook score is source-complete screening data and should be verified before final analytical use.","composite_score":2.0,"source_composite_score_0_10":2.0,"map_color":"#A7F3D0","map_opacity":0.45,"confidence":"Low"}},{"type":"Feature","geometry":{"type":"Point","coordinates":[30.0,15.0]},"properties":{"actor":"USA","actor_slug":"usa","country":"Sudan","iso3":"SDN","region":"Africa","layer_status":"Source-complete","last_updated":"2026-05-20","notes":"Automated screening pass: row uses a primary source URL by actor/subfactor; verify with country-specific evidence before final analytical use.","publication_status":"Source-complete","data_status":"Needs review","demo_warning":"Workbook score is source-complete screening data and should be verified before final analytical use.","composite_score":2.75,"source_composite_score_0_10":2.75,"map_color":"#A7F3D0","map_opacity":0.5,"confidence":"Medium"}},{"type":"Feature","geometry":{"type":"Point","coordinates":[15.0,62.0]},"properties":{"actor":"USA","actor_slug":"usa","country":"Sweden","iso3":"SWE","region":"Europe","layer_status":"Source-complete","last_updated":"2026-05-20","notes":"Automated screening pass: row uses a primary source URL by actor/subfactor; verify with country-specific evidence before final analytical use.","publication_status":"Source-complete","data_status":"Needs review","demo_warning":"Workbook score is source-complete screening data and should be verified before final analytical use.","composite_score":3.5,"source_composite_score_0_10":3.5,"map_color":"#FEF3C7","map_opacity":0.6,"confidence":"Medium"}},{"type":"Feature","geometry":{"type":"Point","coordinates":[38.0,35.0]},"properties":{"actor":"USA","actor_slug":"usa","country":"Syria","iso3":"SYR","region":"Asia","layer_status":"Source-complete","last_updated":"2026-05-20","notes":"Automated screening pass: row uses a primary source URL by actor/subfactor; verify with country-specific evidence before final analytical use.","publication_status":"Source-complete","data_status":"Needs review","demo_warning":"Workbook score is source-complete screening data and should be verified before final analytical use.","composite_score":5.75,"source_composite_score_0_10":5.75,"map_color":"#FCD34D","map_opacity":0.7,"confidence":"Medium"}},{"type":"Feature","geometry":{"type":"Point","coordinates":[121.0,23.5]},"properties":{"actor":"USA","actor_slug":"usa","country":"Taiwan","iso3":"TWN","region":"Asia","layer_status":"Source-complete","last_updated":"2026-05-20","notes":"Automated screening pass: row uses a primary source URL by actor/subfactor; verify with country-specific evidence before final analytical use.","publication_status":"Source-complete","data_status":"Needs review","demo_warning":"Workbook score is source-complete screening data and should be verified before final analytical use.","composite_score":3.75,"source_composite_score_0_10":3.75,"map_color":"#FEF3C7","map_opacity":0.55,"confidence":"Medium"}},{"type":"Feature","geometry":{"type":"Point","coordinates":[71.0,39.0]},"properties":{"actor":"USA","actor_slug":"usa","country":"Tajikistan","iso3":"TJK","region":"Asia","layer_status":"Source-complete","last_updated":"2026-05-20","notes":"Automated screening pass: row uses a primary source URL by actor/subfactor; verify with country-specific evidence before final analytical use.","publication_status":"Source-complete","data_status":"Needs review","demo_warning":"Workbook score is source-complete screening data and should be verified before final analytical use.","composite_score":2.25,"source_composite_score_0_10":2.25,"map_color":"#A7F3D0","map_opacity":0.45,"confidence":"Low"}},{"type":"Feature","geometry":{"type":"Point","coordinates":[100.0,15.0]},"properties":{"actor":"USA","actor_slug":"usa","country":"Thailand","iso3":"THA","region":"Asia","layer_status":"Source-complete","last_updated":"2026-05-20","notes":"Automated screening pass: row uses a primary source URL by actor/subfactor; verify with country-specific evidence before final analytical use.","publication_status":"Source-complete","data_status":"Needs review","demo_warning":"Workbook score is source-complete screening data and should be verified before final analytical use.","composite_score":2.0,"source_composite_score_0_10":2.0,"map_color":"#A7F3D0","map_opacity":0.45,"confidence":"Low"}},{"type":"Feature","geometry":{"type":"Point","coordinates":[-175.0,-20.0]},"properties":{"actor":"USA","actor_slug":"usa","country":"Tonga","iso3":"TON","region":"Oceania","layer_status":"Source-complete","last_updated":"2026-05-20","notes":"Automated screening pass: row uses a primary source URL by actor/subfactor; verify with country-specific evidence before final analytical use.","publication_status":"Source-complete","data_status":"Needs review","demo_warning":"Workbook score is source-complete screening data and should be verified before final analytical use.","composite_score":1.75,"source_composite_score_0_10":1.75,"map_color":"#D1FAE5","map_opacity":0.45,"confidence":"Low"}},{"type":"Feature","geometry":{"type":"Point","coordinates":[35.0,39.0]},"properties":{"actor":"USA","actor_slug":"usa","country":"Turkey","iso3":"TUR","region":"Asia","layer_status":"Source-complete","last_updated":"2026-05-20","notes":"Automated screening pass: row uses a primary source URL by actor/subfactor; verify with country-specific evidence before final analytical use.","publication_status":"Source-complete","data_status":"Needs review","demo_warning":"Workbook score is source-complete screening data and should be verified before final analytical use.","composite_score":3.5,"source_composite_score_0_10":3.5,"map_color":"#FEF3C7","map_opacity":0.6,"confidence":"Medium"}},{"type":"Feature","geometry":{"type":"Point","coordinates":[60.0,40.0]},"properties":{"actor":"USA","actor_slug":"usa","country":"Turkmenistan","iso3":"TKM","region":"Asia","layer_status":"Source-complete","last_updated":"2026-05-20","notes":"Automated screening pass: row uses a primary source URL by actor/subfactor; verify with country-specific evidence before final analytical use.","publication_status":"Source-complete","data_status":"Needs review","demo_warning":"Workbook score is source-complete screening data and should be verified before final analytical use.","composite_score":2.25,"source_composite_score_0_10":2.25,"map_color":"#A7F3D0","map_opacity":0.45,"confidence":"Low"}},{"type":"Feature","geometry":{"type":"Point","coordinates":[178.0,-8.0]},"properties":{"actor":"USA","actor_slug":"usa","country":"Tuvalu","iso3":"TUV","region":"Oceania","layer_status":"Source-complete","last_updated":"2026-05-20","notes":"Automated screening pass: row uses a primary source URL by actor/subfactor; verify with country-specific evidence before final analytical use.","publication_status":"Source-complete","data_status":"Needs review","demo_warning":"Workbook score is source-complete screening data and should be verified before final analytical use.","composite_score":1.75,"source_composite_score_0_10":1.75,"map_color":"#D1FAE5","map_opacity":0.45,"confidence":"Low"}},{"type":"Feature","geometry":{"type":"Point","coordinates":[32.0,1.0]},"properties":{"actor":"USA","actor_slug":"usa","country":"Uganda","iso3":"UGA","region":"Africa","layer_status":"Source-complete","last_updated":"2026-05-20","notes":"Automated screening pass: row uses a primary source URL by actor/subfactor; verify with country-specific evidence before final analytical use.","publication_status":"Source-complete","data_status":"Needs review","demo_warning":"Workbook score is source-complete screening data and should be verified before final analytical use.","composite_score":2.75,"source_composite_score_0_10":2.75,"map_color":"#A7F3D0","map_opacity":0.5,"confidence":"Medium"}},{"type":"Feature","geometry":{"type":"Point","coordinates":[32.0,49.0]},"properties":{"actor":"USA","actor_slug":"usa","country":"Ukraine","iso3":"UKR","region":"Europe","layer_status":"Source-complete","last_updated":"2026-05-20","notes":"Automated screening pass: row uses a primary source URL by actor/subfactor; verify with country-specific evidence before final analytical use.","publication_status":"Source-complete","data_status":"Needs review","demo_warning":"Workbook score is source-complete screening data and should be verified before final analytical use.","composite_score":6.0,"source_composite_score_0_10":6.0,"map_color":"#FDBA74","map_opacity":0.75,"confidence":"Medium"}},{"type":"Feature","geometry":{"type":"Point","coordinates":[54.0,24.0]},"properties":{"actor":"USA","actor_slug":"usa","country":"United Arab Emirates","iso3":"ARE","region":"Asia","layer_status":"Source-complete","last_updated":"2026-05-20","notes":"Automated screening pass: row uses a primary source URL by actor/subfactor; verify with country-specific evidence before final analytical use.","publication_status":"Source-complete","data_status":"Needs review","demo_warning":"Workbook score is source-complete screening data and should be verified before final analytical use.","composite_score":4.75,"source_composite_score_0_10":4.75,"map_color":"#FDE68A","map_opacity":0.6,"confidence":"Medium"}},{"type":"Feature","geometry":{"type":"Point","coordinates":[-2.0,54.0]},"properties":{"actor":"USA","actor_slug":"usa","country":"United Kingdom","iso3":"GBR","region":"Europe","layer_status":"Source-complete","last_updated":"2026-05-20","notes":"Automated screening pass: row uses a primary source URL by actor/subfactor; verify with country-specific evidence before final analytical use.","publication_status":"Source-complete","data_status":"Needs review","demo_warning":"Workbook score is source-complete screening data and should be verified before final analytical use.","composite_score":4.25,"source_composite_score_0_10":4.25,"map_color":"#FDE68A","map_opacity":0.6,"confidence":"Medium"}},{"type":"Feature","geometry":{"type":"Point","coordinates":[-97.0,38.0]},"properties":{"actor":"USA","actor_slug":"usa","country":"United States","iso3":"USA","region":"Americas","layer_status":"Source-complete","last_updated":"2026-05-20","notes":"Automated screening pass: row uses a primary source URL by actor/subfactor; verify with country-specific evidence before final analytical use.","publication_status":"Source-complete","data_status":"Needs review","demo_warning":"Workbook score is source-complete screening data and should be verified before final analytical use.","composite_score":7.75,"source_composite_score_0_10":7.75,"map_color":"#FB923C","map_opacity":0.85,"confidence":"High"}},{"type":"Feature","geometry":{"type":"Point","coordinates":[64.0,41.0]},"properties":{"actor":"USA","actor_slug":"usa","country":"Uzbekistan","iso3":"UZB","region":"Asia","layer_status":"Source-complete","last_updated":"2026-05-20","notes":"Automated screening pass: row uses a primary source URL by actor/subfactor; verify with country-specific evidence before final analytical use.","publication_status":"Source-complete","data_status":"Needs review","demo_warning":"Workbook score is source-complete screening data and should be verified before final analytical use.","composite_score":2.25,"source_composite_score_0_10":2.25,"map_color":"#A7F3D0","map_opacity":0.45,"confidence":"Low"}},{"type":"Feature","geometry":{"type":"Point","coordinates":[167.0,-16.0]},"properties":{"actor":"USA","actor_slug":"usa","country":"Vanuatu","iso3":"VUT","region":"Oceania","layer_status":"Source-complete","last_updated":"2026-05-20","notes":"Automated screening pass: row uses a primary source URL by actor/subfactor; verify with country-specific evidence before final analytical use.","publication_status":"Source-complete","data_status":"Needs review","demo_warning":"Workbook score is source-complete screening data and should be verified before final analytical use.","composite_score":1.75,"source_composite_score_0_10":1.75,"map_color":"#D1FAE5","map_opacity":0.45,"confidence":"Low"}},{"type":"Feature","geometry":{"type":"Point","coordinates":[-66.0,8.0]},"properties":{"actor":"USA","actor_slug":"usa","country":"Venezuela","iso3":"VEN","region":"Americas","layer_status":"Source-complete","last_updated":"2026-05-20","notes":"Automated screening pass: row uses a primary source URL by actor/subfactor; verify with country-specific evidence before final analytical use.","publication_status":"Source-complete","data_status":"Needs review","demo_warning":"Workbook score is source-complete screening data and should be verified before final analytical use.","composite_score":4.5,"source_composite_score_0_10":4.5,"map_color":"#FDE68A","map_opacity":0.6,"confidence":"Medium"}},{"type":"Feature","geometry":{"type":"Point","coordinates":[107.83333333,16.16666666]},"properties":{"actor":"USA","actor_slug":"usa","country":"Vietnam","iso3":"VNM","region":"Asia","layer_status":"Source-complete","last_updated":"2026-05-20","notes":"Automated screening pass: row uses a primary source URL by actor/subfactor; verify with country-specific evidence before final analytical use.","publication_status":"Source-complete","data_status":"Needs review","demo_warning":"Workbook score is source-complete screening data and should be verified before final analytical use.","composite_score":2.0,"source_composite_score_0_10":2.0,"map_color":"#A7F3D0","map_opacity":0.45,"confidence":"Low"}},{"type":"Feature","geometry":{"type":"Point","coordinates":[-13.0,24.5]},"properties":{"actor":"USA","actor_slug":"usa","country":"Western Sahara","iso3":"ESH","region":"Africa","layer_status":"Source-complete","last_updated":"2026-05-20","notes":"Automated screening pass: row uses a primary source URL by actor/subfactor; verify with country-specific evidence before final analytical use.","publication_status":"Source-complete","data_status":"Needs review","demo_warning":"Workbook score is source-complete screening data and should be verified before final analytical use.","composite_score":2.75,"source_composite_score_0_10":2.75,"map_color":"#A7F3D0","map_opacity":0.5,"confidence":"Medium"}},{"type":"Feature","geometry":{"type":"Point","coordinates":[30.0,-20.0]},"properties":{"actor":"USA","actor_slug":"usa","country":"Zimbabwe","iso3":"ZWE","region":"Africa","layer_status":"Source-complete","last_updated":"2026-05-20","notes":"Automated screening pass: row uses a primary source URL by actor/subfactor; verify with country-specific evidence before final analytical use.","publication_status":"Source-complete","data_status":"Needs review","demo_warning":"Workbook score is source-complete screening data and should be verified before final analytical use.","composite_score":2.75,"source_composite_score_0_10":2.75,"map_color":"#A7F3D0","map_opacity":0.5,"confidence":"Medium"}}]}
